#aV2021  7 21  0  0  0.00000000     288 DD+AD WGS84 FIT  NGA
## 2167 259200.00000000   300.00000000 59416 0.0000000000000
+   32     1  2  3  4  5  6  7  8  9 10 11 12 13 14 15 16 17
+         18 19 20 21 22 23 24 25 26 27 28 29 30 31 32  0  0
+          0  0  0  0  0  0  0  0  0  0  0  0  0  0  0  0  0
+          0  0  0  0  0  0  0  0  0  0  0  0  0  0  0  0  0
+          0  0  0  0  0  0  0  0  0  0  0  0  0  0  0  0  0
++         2  2  2  2  2  2  2  2  2  2  2  2  2  2  2  2  2
++         2  2  2  2  2  2  2  2  2  2  2  2  2  2  2  0  0
++         0  0  0  0  0  0  0  0  0  0  0  0  0  0  0  0  0
++         0  0  0  0  0  0  0  0  0  0  0  0  0  0  0  0  0
++         0  0  0  0  0  0  0  0  0  0  0  0  0  0  0  0  0
%c cc cc ccc ccc cccc cccc cccc cccc ccccc ccccc ccccc ccccc
%c cc cc ccc ccc cccc cccc cccc cccc ccccc ccccc ccccc ccccc
%f  0.0000000  0.000000000  0.00000000000  0.000000000000000
%f  0.0000000  0.000000000  0.00000000000  0.000000000000000
%i    0    0    0    0      0      0      0      0         0
%i    0    0    0    0      0      0      0      0         0
/*      NGA, ST. LOUIS,MO.                                  
/*   EPHEMERIS COMPUTED FROM 2 DAYS OF DATA                 
/*   EPOCHA v6 SMOOTHER                                     
/*   G2139 IERS2010 SATIGS SATAPC                           
*  2021  7 21 10 40  0.00000000
P  1  13903.403747 -22409.401127   -323.989643    621.670263                    
V  1   2027.767613   1181.280414  32503.428777     -0.115031                    
P  2 -17543.408019   6103.613823 -18359.323362   -621.069476                    
V  2   9965.762350 -22596.171125 -16398.047330     -0.025895                    
P  3  14392.603152 -12343.322285 -18644.358471   -227.374016                    
V  3  23446.821144   2063.706847  16926.120660     -0.120088                    
P  4   4786.766837 -18814.589947 -18091.313430   -202.763004                    
V  4  11671.898882  19895.938204 -17655.752425     -0.006879                    
P  5 -23834.431923   6911.983198   9552.725097    -48.578482                    
V  5 -12327.654529  -2434.887375 -28339.394706     -0.011596                    
P  6 -13107.230848  -6682.073038 -22057.163239     43.324862                    
V  6  14737.974629 -23895.805841  -1458.009321      0.056906                    
P  7   2885.793607 -22668.404341  13470.460681    207.384095                    
V  7  11182.428861 -12731.081360 -24975.173026      0.086897                    
P  8  12098.123932  -9134.735604  21778.675232    -29.608691                    
V  8  13880.266104  23958.417493   2635.940014     -0.014674                    
P  9  -5444.883133 -24047.298594  -9908.719419   -356.269117                    
V  9   8502.580693   9575.784330 -28107.699649     -0.013705                    
P 10  17371.996049  11800.343161  16541.095472   -166.381183                    
V 10 -20683.971027    903.971908  20960.123757     -0.075939                    
P 11 -18522.340141   3568.417306 -18713.425101     20.485503                    
V 11  12446.464601 -20259.928596 -16199.720925      0.080581                    
P 12 -15536.093646  11163.012477 -18617.409365    -71.648322                    
V 12 -22891.141984  -3633.264551  17286.785608     -0.052993                    
P 13 -15650.294780    155.121372  21342.633698    160.557663                    
V 13  -9259.871517 -25765.915375  -6421.718878      0.050242                    
P 14 -17134.907134 -12544.185051  15976.408346     42.255566                    
V 14  20377.449760   -491.146275  21419.732068     -0.088979                    
P 15 -11431.649147  10936.993851  20938.819519   -134.016640                    
V 15 -16312.123645 -22286.656634   3033.728440      0.026683                    
P 16  26448.686584    359.992375   4109.328606   -360.627888                    
V 16   5170.698448   2663.711129 -31170.859063     -0.061682                    
P 17 -13001.742261 -22858.376811  -3270.041385    477.117966                    
V 17      9.858413  -5158.063531  31861.713888      0.057818                    
P 18  -1504.624707  21637.547149  15261.647976    339.398797                    
V 18 -12147.153490  15269.562677 -22901.290839     -0.028118                    
P 19 -16156.283384 -17245.331207 -12548.889808     29.148524                    
V 19  -4326.101464 -14869.814660  26465.575264      0.049729                    
P 20 -26265.925822   1215.720075  -2573.761919    520.067325                    
V 20   2808.841893  -4059.979811 -31212.655099     -0.001846                    
P 21  16778.506242 -18410.302744   9127.563476    132.565772                    
V 21  -2370.575608  10920.700169  29085.885643      0.022874                    
P 22  20858.849359 -10541.168708 -12249.789418   -558.176934                    
V 22  16153.631806   1992.097490  25617.806138      0.095192                    
P 23   5315.985361  14816.617433  21378.526850     81.637981                    
V 23 -27176.029975    430.501329   6393.678736     -0.051805                    
P 24 -15075.750557  20975.667904   4937.485648    182.097244                    
V 24   -388.451219  -7739.052918  30557.963790      0.136518                    
P 25  -3043.855778  15183.102485 -21822.061412    177.299395                    
V 25 -27090.967132  -1111.677770   3306.209408      0.066633                    
P 26  25288.311185   4800.878582  -7161.150149    113.179356                    
V 26  -8924.606764   3148.477714 -29370.475021      0.045624                    
P 27  16918.005195   2479.429451  20242.959734   -166.226932                    
V 27  11666.609800  23208.712065 -12127.245877     -0.058279                    
P 28 -21204.027114 -10899.950714  12048.823099    534.082684                    
V 28  14643.328492   -254.473470  26948.564961     -0.066195                    
P 29   2431.832860  23883.730384 -11345.497355   -383.668058                    
V 29  -7523.391085 -12317.922826 -27719.520329     -0.060861                    
P 30  -7545.946224 -15589.000451  20146.525565   -453.270157                    
V 30  15063.943696 -20718.341662 -10661.640633     -0.043513                    
P 31  14971.169064   4894.850827 -21518.152817   -129.847548                    
V 31 -14606.412143  22812.357990  -4532.936839     -0.021214                    
P 32  16031.410963  20381.942750  -6040.954943     12.857692                    
V 32   1384.795197   8120.835338  30320.532619     -0.021737                    
EOF
